$$SOE
2460721.500000000, A.D. 2025-Feb-15 00:00:00.0000, 2.524932405371132E+08, 2.484141352105470E+08, 1.519781254247385E+07,
2460728.500000000, A.D. 2025-Feb-22 00:00:00.0000, 2.430428831358758E+08, 2.565354887839361E+08, 1.617850995521897E+07,
2460735.500000000, A.D. 2025-Mar-01 00:00:00.0000, 2.333260128940108E+08, 2.643756337811182E+08, 1.714146067896140E+07,
2460742.500000000, A.D. 2025-Mar-08 00:00:00.0000, 2.233517055271364E+08, 2.719241896649240E+08, 1.808549208881228E+07,
2460749.500000000, A.D. 2025-Mar-15 00:00:00.0000, 2.131295569005703E+08, 2.791711191290244E+08, 1.900944774508716E+07,
2460756.500000000, A.D. 2025-Mar-22 00:00:00.0000, 2.026696658993762E+08, 2.861067614956543E+08, 1.991219098103775E+07,
2460763.500000000, A.D. 2025-Mar-29 00:00:00.0000, 1.919826160529086E+08, 2.927218631042867E+08, 2.079260818700762E+07,
2460770.500000000, A.D. 2025-Apr-05 00:00:00.0000, 1.810794562809343E+08, 2.990076075820141E+08, 2.164961199401915E+07,
2460777.500000000, A.D. 2025-Apr-12 00:00:00.0000, 1.699716788970872E+08, 3.049556458512099E+08, 2.248214451766542E+07,
2460784.500000000, A.D. 2025-Apr-19 00:00:00.0000, 1.586711947720495E+08, 3.105581247526965E+08, 2.328918058334886E+07,
2460791.500000000, A.D. 2025-Apr-26 00:00:00.0000, 1.471903060460986E+08, 3.158077138496127E+08, 2.406973086727068E+07,
2460798.500000000, A.D. 2025-May-03 00:00:00.0000, 1.355416766490735E+08, 3.206976302105044E+08, 2.482284492049019E+07,
2460805.500000000, A.D. 2025-May-10 00:00:00.0000, 1.237383008255216E+08, 3.252216609741415E+08, 2.554761405094662E+07,
2460812.500000000, A.D. 2025-May-17 00:00:00.0000, 1.117934698938971E+08, 3.293741834666431E+08, 2.624317403451261E+07,
2460819.500000000, A.D. 2025-May-24 00:00:00.0000, 9.972073762652783E+07, 3.331501826491303E+08, 2.690870761382861E+07,
2460826.500000000, A.D. 2025-May-31 00:00:00.0000, 8.753388489930451E+07, 3.365452660645308E+08, 2.754344675295047E+07,
2460833.500000000, A.D. 2025-Jun-07 00:00:00.0000, 7.524688345925909E+07, 3.395556773730416E+08, 2.814667476578942E+07,
2460840.500000000, A.D. 2025-Jun-14 00:00:00.0000, 6.287385670771459E+07, 3.421783077140009E+08, 2.871772846452281E+07,
2460847.500000000, A.D. 2025-Jun-21 00:00:00.0000, 5.042903897741482E+07, 3.444107015540787E+08, 2.925599993573728E+07,
2460854.500000000, A.D. 2025-Jun-28 00:00:00.0000, 3.792673670164935E+07, 3.462510587626898E+08, 2.976093779241723E+07,
2460861.500000000, A.D. 2025-Jul-05 00:00:00.0000, 2.538129023767792E+07, 3.476982350724029E+08, 3.023204820919904E+07,
2460868.500000000, A.D. 2025-Jul-12 00:00:00.0000, 1.280703542545435E+07, 3.487517401427325E+08, 3.066889577862464E+07,
2460875.500000000, A.D. 2025-Jul-19 00:00:00.0000, 2.182653350923205E+05, 3.494117327071602E+08, 3.107110412155806E+07,
2460882.500000000, A.D. 2025-Jul-26 00:00:00.0000, -1.237080733208393E+07, 3.496790128308525E+08, 3.143835622830953E+07,
2460889.500000000, A.D. 2025-Aug-02 00:00:00.0000, -2.494608688113593E+07, 3.495550114107893E+08, 3.177039452934967E+07,
2460896.500000000, A.D. 2025-Aug-09 00:00:00.0000, -3.749363004974712E+07, 3.490417770374600E+08, 3.206702069799760E+07,
2460903.500000000, A.D. 2025-Aug-16 00:00:00.0000, -4.999967993803483E+07, 3.481419603100110E+08, 3.232809518109326E+07,
2460910.500000000, A.D. 2025-Aug-23 00:00:00.0000, -6.245069796193655E+07, 3.468587957951984E+08, 3.255353644277443E+07,
2460917.500000000, A.D. 2025-Aug-30 00:00:00.0000, -7.483339333647300E+07, 3.451960825350077E+08, 3.274331996239218E+07,
2460924.500000000, A.D. 2025-Sep-06 00:00:00.0000, -8.713475136373608E+07, 3.431581643095229E+08, 3.289747721302594E+07,
2460931.500000000, A.D. 2025-Sep-13 00:00:00.0000, -9.934206207036513E+07, 3.407499073820851E+08, 3.301609458583453E+07,
2460938.500000000, A.D. 2025-Sep-20 00:00:00.0000, -1.114429458230569E+08, 3.379766742857887E+08, 3.309931184095073E+07,
2460945.500000000, A.D. 2025-Sep-27 00:00:00.0000, -1.234253747981258E+08, 3.348442969772245E+08, 3.314732025948140E+07,
2460952.500000000, A.D. 2025-Oct-04 00:00:00.0000, -1.352776922774325E+08, 3.313590501145348E+08, 3.316036074371761E+07,
2460959.500000000, A.D. 2025-Oct-11 00:00:00.0000, -1.469886301257205E+08, 3.275276237290531E+08, 3.313872184181231E+07,
2460966.500000000, A.D. 2025-Oct-18 00:00:00.0000, -1.585473241716636E+08, 3.233570952290320E+08, 3.308273766880678E+07,
2460973.500000000, A.D. 2025-Oct-25 00:00:00.0000, -1.699433273766117E+08, 3.188549009563907E+08, 3.299278573231028E+07,
2460980.500000000, A.D. 2025-Nov-01 00:00:00.0000, -1.811666207903047E+08, 3.140288075113189E+08, 3.286928467949218E+07,
2460987.500000000, A.D. 2025-Nov-08 00:00:00.0000, -1.922076223133928E+08, 3.088868829981570E+08, 3.271269197734191E+07,
2460994.500000000, A.D. 2025-Nov-15 00:00:00.0000, -2.030571931889271E+08, 3.034374683037419E+08, 3.252350152449664E+07,
2461001.500000000, A.D. 2025-Nov-22 00:00:00.0000, -2.137066419044807E+08, 2.976891487833902E+08, 3.230224119150749E+07,
2461008.500000000, A.D. 2025-Nov-29 00:00:00.0000, -2.241477257555492E+08, 2.916507276308507E+08, 3.204947041143040E+07,
2461015.500000000, A.D. 2025-Dec-06 00:00:00.0000, -2.343726524558310E+08, 2.853312009263778E+08, 3.176577803282872E+07,
2461022.500000000, A.D. 2025-Dec-13 00:00:00.0000, -2.443740814710976E+08, 2.787397311083004E+08, 3.145178013291878E+07,
2461029.500000000, A.D. 2025-Dec-20 00:00:00.0000, -2.541451216970101E+08, 2.718856199838985E+08, 3.110811756556427E+07,
2461036.500000000, A.D. 2025-Dec-27 00:00:00.0000, -2.636793266806154E+08, 2.647782839525033E+08, 3.073545356539325E+07,
2461043.500000000, A.D. 2026-Jan-03 00:00:00.0000, -2.729706889713508E+08, 2.574272309001375E+08, 3.033447150153176E+07,
2461050.500000000, A.D. 2026-Jan-10 00:00:00.0000, -2.820136336141814E+08, 2.498420381454672E+08, 2.990587272385560E+07,
2461057.500000000, A.D. 2026-Jan-17 00:00:00.0000, -2.908030106739466E+08, 2.420323313893555E+08, 2.945037448020096E+07,
2461064.500000000, A.D. 2026-Jan-24 00:00:00.0000, -2.993340868330245E+08, 2.340077647229639E+08, 2.896870790538946E+07,
2461071.500000000, A.D. 2026-Jan-31 00:00:00.0000, -3.076025361553631E+08, 2.257780017085339E+08, 2.846161608429745E+07,
2461078.500000000, A.D. 2026-Feb-07 00:00:00.0000, -3.156044300670354E+08, 2.173526974866205E+08, 2.792985218245585E+07,
2461085.500000000, A.D. 2026-Feb-14 00:00:00.0000, -3.233362264064039E+08, 2.087414818954620E+08, 2.737417762240873E+07,
2461092.500000000, A.D. 2026-Feb-21 00:00:00.0000, -3.307947572569718E+08, 1.999539441707635E+08, 2.679536031916817E+07,
2461099.500000000, A.D. 2026-Feb-28 00:00:00.0000, -3.379772167444530E+08, 1.909996203620464E+08, 2.619417316955313E+07,
2461106.500000000, A.D. 2026-Mar-07 00:00:00.0000, -3.448811509507230E+08, 1.818879814934334E+08, 2.557139282548459E+07,
2461113.500000000, A.D. 2026-Mar-14 00:00:00.0000, -3.515044472546889E+08, 1.726284201107042E+08, 2.492779830624567E+07,
2461120.500000000, A.D. 2026-Mar-21 00:00:00.0000, -3.578453213925364E+08, 1.632302380786930E+08, 2.426416952267320E+07,
2461127.500000000, A.D. 2026-Mar-28 00:00:00.0000, -3.639023043212217E+08, 1.537026366191769E+08, 2.358128598085153E+07,
2461134.500000000, A.D. 2026-Apr-04 00:00:00.0000, -3.696742295591938E+08, 1.440547075868400E+08, 2.287992564054907E+07,
2461141.500000000, A.D. 2026-Apr-11 00:00:00.0000, -3.751602207905930E+08, 1.342954255845957E+08, 2.216086387207466E+07,
2461148.500000000, A.D. 2026-Apr-18 00:00:00.0000, -3.803596796259243E+08, 1.244336408689582E+08, 2.142487249411009E+07,
2461155.500000000, A.D. 2026-Apr-25 00:00:00.0000, -3.852722735200136E+08, 1.144780730152529E+08, 2.067271888688395E+07,
2461162.500000000, A.D. 2026-May-02 00:00:00.0000, -3.898979238580724E+08, 1.044373052671182E+08, 1.990516517258484E+07,
2461169.500000000, A.D. 2026-May-09 00:00:00.0000, -3.942367941219054E+08, 9.431977945788310E+07, 1.912296744314217E+07,
2461176.500000000, A.D. 2026-May-16 00:00:00.0000, -3.982892777901492E+08, 8.413379159627381E+07, 1.832687500884571E+07,
2461183.500000000, A.D. 2026-May-23 00:00:00.0000, -4.020559859478306E+08, 7.388748909354270E+07, 1.751762974329286E+07,
2461190.500000000, A.D. 2026-May-30 00:00:00.0000, -4.055377367070647E+08, 6.358886990710758E+07, 1.669596573793722E+07,
2461197.500000000, A.D. 2026-Jun-06 00:00:00.0000, -4.087355467767778E+08, 5.324578028502493E+07, 1.586260902425290E+07,
2461204.500000000, A.D. 2026-Jun-13 00:00:00.0000, -4.116506215287883E+08, 4.286591127097802E+07, 1.501827704006899E+07,
2461211.500000000, A.D. 2026-Jun-20 00:00:00.0000, -4.142843440661739E+08, 3.245679685456103E+07, 1.416367812169845E+07,
2461218.500000000, A.D. 2026-Jun-27 00:00:00.0000, -4.166382649980001E+08, 2.202581338277811E+07, 1.329951114631585E+07,
2461225.500000000, A.D. 2026-Jul-04 00:00:00.0000, -4.187140929298800E+08, 1.158017941632904E+07, 1.242646525782930E+07,
2461232.500000000, A.D. 2026-Jul-11 00:00:00.0000, -4.205136854249988E+08, 1.126955862002298E+06, 1.154521963890980E+07,
2461239.500000000, A.D. 2026-Jul-18 00:00:00.0000, -4.220390403481433E+08, -9.326953626231104E+06, 1.065644331957003E+07,
2461246.500000000, A.D. 2026-Jul-25 00:00:00.0000, -4.232922875698241E+08, -1.977480200543031E+07, 9.760795017124841E+06,
2461253.500000000, A.D. 2026-Aug-01 00:00:00.0000, -4.242756809806402E+08, -3.020999803852827E+07, 8.858922996157607E+06,
2461260.500000000, A.D. 2026-Aug-08 00:00:00.0000, -4.249915905968494E+08, -4.062610538973851E+07, 7.951464922998379E+06,
2461267.500000000, A.D. 2026-Aug-15 00:00:00.0000, -4.254424943362303E+08, -5.101684119695303E+07, 7.039047710796192E+06,
2461274.500000000, A.D. 2026-Aug-22 00:00:00.0000, -4.256309702180911E+08, -6.137607292548798E+07, 6.122287522302382E+06,
2461281.500000000, A.D. 2026-Aug-29 00:00:00.0000, -4.255596912694603E+08, -7.169781490076147E+07, 5.201790025712006E+06,
2461288.500000000, A.D. 2026-Sep-05 00:00:00.0000, -4.252314209982914E+08, -8.197622741090812E+07, 4.278150471199796E+06,
$$EOE